start=new Date('2022-02-26T00:00:00.000Z').valueOf();
sats=[{"SITE":"AFETR","CLASSIFICATION_TYPE":"U","PERIOD":"95.592","ARG_OF_PERICENTER":"60.6001","MEAN_ANOMALY":"299.5146","DECAY_DATE":null,"TIME_SYSTEM":"UTC","TLE_LINE1":"1 46719U 20073BB  22056.53683376  .00000606  00000-0  59576-4 0  9993","TLE_LINE2":"2 46719  53.0554 354.8680 0001582  60.6001 299.5146 15.06401579 75853","PERIAPSIS":"546.113","NORAD_CAT_ID":"46719","LAUNCH_DATE":"2020-10-18","RA_OF_ASC_NODE":"354.8680","REF_FRAME":"TEME","OBJECT_NAME":"STARLINK-1822","ECCENTRICITY":"0.00015820","ELEMENT_SET_NO":"999","FILE":"3323280","APOAPSIS":"548.304","MEAN_MOTION_DDOT":"0.0000000000000","MEAN_MOTION_DOT":"0.00000606","INCLINATION":"53.0554","SEMIMAJOR_AXIS":"6925.344","RCS_SIZE":"LARGE","EPOCH":"2022-02-25T12:53:02.436864","OBJECT_ID":"2020-073BB","GP_ID":"196994990","CENTER_NAME":"EARTH","OBJECT_TYPE":"PAYLOAD","MEAN_ELEMENT_THEORY":"SGP4","BSTAR":"0.00005957600000","MEAN_MOTION":"15.06401579","COUNTRY_CODE":"US","EPHEMERIS_TYPE":"0","REV_AT_EPOCH":"7585"},{"CLASSIFICATION_TYPE":"U","SITE":"AFETR","PERIOD":"92.498","ARG_OF_PERICENTER":"100.5697","MEAN_ANOMALY":"259.5445","DECAY_DATE":null,"TIME_SYSTEM":"UTC","TLE_LINE1":"1 46720U 20073BC  22056.90817855  .00026562  00000-0  36981-3 0  9990","TLE_LINE2":"2 46720  53.0551 306.6923 0001160 100.5697 259.5445 15.56786949 76080","PERIAPSIS":"396.179","NORAD_CAT_ID":"46720","RA_OF_ASC_NODE":"306.6923","LAUNCH_DATE":"2020-10-18","REF_FRAME":"TEME","OBJECT_NAME":"STARLINK-1823","ECCENTRICITY":"0.00011600","ELEMENT_SET_NO":"999","APOAPSIS":"397.751","FILE":"3323947","MEAN_MOTION_DDOT":"0.0000000000000","RCS_SIZE":"LARGE","SEMIMAJOR_AXIS":"6775.100","MEAN_MOTION_DOT":"0.00026562","INCLINATION":"53.0551","OBJECT_ID":"2020-073BC","EPOCH":"2022-02-25T21:47:46.626720","GP_ID":"197031291","CENTER_NAME":"EARTH","BSTAR":"0.00036981000000","OBJECT_TYPE":"PAYLOAD","MEAN_ELEMENT_THEORY":"SGP4","MEAN_MOTION":"15.56786949","REV_AT_EPOCH":"7608","COUNTRY_CODE":"US","EPHEMERIS_TYPE":"0"},{"GP_ID":"197031541","OBJECT_ID":"2020-073BE","EPOCH":"2022-02-25T15:30:16.937568","CENTER_NAME":"EARTH","MEAN_MOTION":"15.06395404","BSTAR":"0.00008969800000","MEAN_ELEMENT_THEORY":"SGP4","OBJECT_TYPE":"PAYLOAD","REV_AT_EPOCH":"7489","COUNTRY_CODE":"US","EPHEMERIS_TYPE":"0","RA_OF_ASC_NODE":"29.3660","LAUNCH_DATE":"2020-10-18","NORAD_CAT_ID":"46722","OBJECT_NAME":"STARLINK-1825","ECCENTRICITY":"0.00017760","REF_FRAME":"TEME","FILE":"3323947","APOAPSIS":"548.458","ELEMENT_SET_NO":"999","SEMIMAJOR_AXIS":"6925.363","RCS_SIZE":"LARGE","INCLINATION":"53.0563","MEAN_MOTION_DOT":"0.00001055","MEAN_MOTION_DDOT":"0.0000000000000","TIME_SYSTEM":"UTC","TLE_LINE1":"1 46722U 20073BE  22056.64602937  .00001055  00000-0  89698-4 0  9990","PERIAPSIS":"545.998","TLE_LINE2":"2 46722  53.0563  29.3660 0001776  61.1356 298.9811 15.06395404 74897","CLASSIFICATION_TYPE":"U","SITE":"AFETR","PERIOD":"95.592","MEAN_ANOMALY":"298.9811","ARG_OF_PERICENTER":"61.1356","DECAY_DATE":null},{"BSTAR":"0.00007496400000","MEAN_ELEMENT_THEORY":"SGP4","OBJECT_TYPE":"PAYLOAD","MEAN_MOTION":"15.06394335","REV_AT_EPOCH":"7548","COUNTRY_CODE":"US","EPHEMERIS_TYPE":"0","OBJECT_ID":"2020-073BF","EPOCH":"2022-02-25T19:18:31.080960","GP_ID":"197032787","CENTER_NAME":"EARTH","ELEMENT_SET_NO":"999","FILE":"3323947","APOAPSIS":"548.401","MEAN_MOTION_DDOT":"0.0000000000000","SEMIMAJOR_AXIS":"6925.366","RCS_SIZE":"LARGE","INCLINATION":"53.0553","MEAN_MOTION_DOT":"0.00000835","NORAD_CAT_ID":"46723","LAUNCH_DATE":"2020-10-18","RA_OF_ASC_NODE":"348.6701","REF_FRAME":"TEME","ECCENTRICITY":"0.00016900","OBJECT_NAME":"STARLINK-1826","TLE_LINE1":"1 46723U 20073BF  22056.80452640  .00000835  00000-0  74964-4 0  9998","TLE_LINE2":"2 46723  53.0553 348.6701 0001690  58.5153 301.6001 15.06394335 75481","PERIAPSIS":"546.061","TIME_SYSTEM":"UTC","ARG_OF_PERICENTER":"58.5153","MEAN_ANOMALY":"301.6001","DECAY_DATE":null,"CLASSIFICATION_TYPE":"U","SITE":"AFETR","PERIOD":"95.592"},{"REV_AT_EPOCH":"7489","EPHEMERIS_TYPE":"0","COUNTRY_CODE":"US","BSTAR":"0.00009255500000","MEAN_ELEMENT_THEORY":"SGP4","OBJECT_TYPE":"PAYLOAD","MEAN_MOTION":"15.06398335","CENTER_NAME":"EARTH","OBJECT_ID":"2020-073BH","EPOCH":"2022-02-25T14:37:11.632224","GP_ID":"197032543","MEAN_MOTION_DDOT":"0.0000000000000","RCS_SIZE":"LARGE","SEMIMAJOR_AXIS":"6925.354","INCLINATION":"53.0562","MEAN_MOTION_DOT":"0.00001097","ELEMENT_SET_NO":"999","FILE":"3323947","APOAPSIS":"548.381","REF_FRAME":"TEME","ECCENTRICITY":"0.00016780","OBJECT_NAME":"STARLINK-1828","NORAD_CAT_ID":"46725","RA_OF_ASC_NODE":"29.5254","LAUNCH_DATE":"2020-10-18","TLE_LINE2":"2 46725  53.0562  29.5254 0001678  60.9847 299.1310 15.06398335 74896","PERIAPSIS":"546.057","TLE_LINE1":"1 46725U 20073BH  22056.60916241  .00001097  00000-0  92555-4 0  9997","TIME_SYSTEM":"UTC","DECAY_DATE":null,"ARG_OF_PERICENTER":"60.9847","MEAN_ANOMALY":"299.1310","PERIOD":"95.592","CLASSIFICATION_TYPE":"U","SITE":"AFETR"},{"TLE_LINE2":"2 46726  53.0544  14.7299 0002015 353.6894   6.4069 15.06396260 75090","PERIAPSIS":"545.830","TLE_LINE1":"1 46726U 20073BJ  22056.56816971  .00005112  00000-0  36187-3 0  9992","TIME_SYSTEM":"UTC","DECAY_DATE":null,"ARG_OF_PERICENTER":"353.6894","MEAN_ANOMALY":"6.4069","PERIOD":"95.592","CLASSIFICATION_TYPE":"U","SITE":"AFETR","REV_AT_EPOCH":"7509","EPHEMERIS_TYPE":"0","COUNTRY_CODE":"US","BSTAR":"0.00036187000000","OBJECT_TYPE":"PAYLOAD","MEAN_ELEMENT_THEORY":"SGP4","MEAN_MOTION":"15.06396260","CENTER_NAME":"EARTH","OBJECT_ID":"2020-073BJ","EPOCH":"2022-02-25T13:38:09.862944","GP_ID":"197031791","MEAN_MOTION_DDOT":"0.0000000000000","SEMIMAJOR_AXIS":"6925.360","RCS_SIZE":"LARGE","MEAN_MOTION_DOT":"0.00005112","INCLINATION":"53.0544","ELEMENT_SET_NO":"999","FILE":"3323947","APOAPSIS":"548.620","REF_FRAME":"TEME","ECCENTRICITY":"0.00020150","OBJECT_NAME":"STARLINK-1829","NORAD_CAT_ID":"46726","LAUNCH_DATE":"2020-10-18","RA_OF_ASC_NODE":"14.7299"},{"MEAN_ANOMALY":"300.1385","ARG_OF_PERICENTER":"59.9786","DECAY_DATE":null,"CLASSIFICATION_TYPE":"U","SITE":"AFETR","PERIOD":"95.592","TLE_LINE1":"1 46727U 20073BK  22056.52439635  .00000445  00000-0  48785-4 0  9999","PERIAPSIS":"545.952","TLE_LINE2":"2 46727  53.0564 349.9100 0001837  59.9786 300.1385 15.06396457 75446","TIME_SYSTEM":"UTC","APOAPSIS":"548.497","FILE":"3323947","ELEMENT_SET_NO":"999","SEMIMAJOR_AXIS":"6925.359","RCS_SIZE":"LARGE","INCLINATION":"53.0564","MEAN_MOTION_DOT":"0.00000445","MEAN_MOTION_DDOT":"0.0000000000000","LAUNCH_DATE":"2020-10-18","RA_OF_ASC_NODE":"349.9100","NORAD_CAT_ID":"46727","ECCENTRICITY":"0.00018370","OBJECT_NAME":"STARLINK-1830","REF_FRAME":"TEME","MEAN_MOTION":"15.06396457","BSTAR":"0.00004878500000","MEAN_ELEMENT_THEORY":"SGP4","OBJECT_TYPE":"PAYLOAD","REV_AT_EPOCH":"7544","EPHEMERIS_TYPE":"0","COUNTRY_CODE":"US","GP_ID":"197032041","OBJECT_ID":"2020-073BK","EPOCH":"2022-02-25T12:35:07.844640","CENTER_NAME":"EARTH"},{"PERIOD":"90.685","CLASSIFICATION_TYPE":"U","SITE":"AFETR","DECAY_DATE":null,"ARG_OF_PERICENTER":"141.2047","MEAN_ANOMALY":"218.9298","TIME_SYSTEM":"UTC","TLE_LINE2":"2 46728  53.0444 301.6797 0004466 141.2047 218.9298 15.87914882 76141","PERIAPSIS":"305.146","TLE_LINE1":"1 46728U 20073BL  22056.89885511  .00165774  00000-0  59099-3 0  9994","REF_FRAME":"TEME","ECCENTRICITY":"0.00044660","OBJECT_NAME":"STARLINK-1831","NORAD_CAT_ID":"46728","RA_OF_ASC_NODE":"301.6797","LAUNCH_DATE":"2020-10-18","MEAN_MOTION_DDOT":"0.0000000000000","SEMIMAJOR_AXIS":"6686.267","RCS_SIZE":"LARGE","INCLINATION":"53.0444","MEAN_MOTION_DOT":"0.00165774","ELEMENT_SET_NO":"999","APOAPSIS":"311.118","FILE":"3323947","CENTER_NAME":"EARTH","OBJECT_ID":"2020-073BL","EPOCH":"2022-02-25T21:34:21.081504","GP_ID":"197032288","REV_AT_EPOCH":"7614","EPHEMERIS_TYPE":"0","COUNTRY_CODE":"US","BSTAR":"0.00059099000000","OBJECT_TYPE":"PAYLOAD","MEAN_ELEMENT_THEORY":"SGP4","MEAN_MOTION":"15.87914882"},{"MEAN_ANOMALY":"300.2666","ARG_OF_PERICENTER":"59.8483","DECAY_DATE":null,"CLASSIFICATION_TYPE":"U","SITE":"AFETR","PERIOD":"95.593","TLE_LINE1":"1 46740U 20074B   22056.81650871  .00000930  00000-0  81375-4 0  9995","PERIAPSIS":"546.123","TLE_LINE2":"2 46740  53.0541  98.6096 0001625  59.8483 300.2666 15.06388514 74601","TIME_SYSTEM":"UTC","APOAPSIS":"548.374","FILE":"3323947","ELEMENT_SET_NO":"999","SEMIMAJOR_AXIS":"6925.384","RCS_SIZE":"LARGE","INCLINATION":"53.0541","MEAN_MOTION_DOT":"0.00000930","MEAN_MOTION_DDOT":"0.0000000000000","LAUNCH_DATE":"2020-10-24","RA_OF_ASC_NODE":"98.6096","NORAD_CAT_ID":"46740","ECCENTRICITY":"0.00016250","OBJECT_NAME":"STARLINK-1848","REF_FRAME":"TEME","MEAN_MOTION":"15.06388514","BSTAR":"0.00008137500000","OBJECT_TYPE":"PAYLOAD","MEAN_ELEMENT_THEORY":"SGP4","REV_AT_EPOCH":"7460","EPHEMERIS_TYPE":"0","COUNTRY_CODE":"US","GP_ID":"197032544","OBJECT_ID":"2020-074B","EPOCH":"2022-02-25T19:35:46.352544","CENTER_NAME":"EARTH"},{"TIME_SYSTEM":"UTC","TLE_LINE2":"2 46741  53.0542  93.5253 0001616  58.0566 302.0580 15.06402335 74686","PERIAPSIS":"546.087","TLE_LINE1":"1 46741U 20074C   22056.83355436  .00001297  00000-0  10594-3 0  9998","PERIOD":"95.592","CLASSIFICATION_TYPE":"U","SITE":"AFETR","DECAY_DATE":null,"ARG_OF_PERICENTER":"58.0566","MEAN_ANOMALY":"302.0580","CENTER_NAME":"EARTH","OBJECT_ID":"2020-074C","EPOCH":"2022-02-25T20:00:19.096704","GP_ID":"197031792","REV_AT_EPOCH":"7468","EPHEMERIS_TYPE":"0","COUNTRY_CODE":"US","BSTAR":"0.00010594000000","MEAN_ELEMENT_THEORY":"SGP4","OBJECT_TYPE":"PAYLOAD","MEAN_MOTION":"15.06402335","REF_FRAME":"TEME","ECCENTRICITY":"0.00016160","OBJECT_NAME":"STARLINK-1865","NORAD_CAT_ID":"46741","RA_OF_ASC_NODE":"93.5253","LAUNCH_DATE":"2020-10-24","MEAN_MOTION_DDOT":"0.0000000000000","RCS_SIZE":"LARGE","SEMIMAJOR_AXIS":"6925.341","INCLINATION":"53.0542","MEAN_MOTION_DOT":"0.00001297","ELEMENT_SET_NO":"999","APOAPSIS":"548.326","FILE":"3323947"}];
